INTELSAT 902 (IS-902)   
1 26900U 01039A   26153.38591378 -.00000274  00000+0  00000+0 0  9993
2 26900   6.0808  71.9616 0004280 356.3669 271.3532  1.00272324 90545
INTELSAT 904 (IS-904)   
1 27380U 02007A   26152.63576286 -.00000217  00000+0  00000+0 0  9997
2 27380   6.8820  69.3700 0007383 356.5998  21.5449  1.00271671 51610
DIRECTV 5 (TEMPO 1)     
1 27426U 02023A   26153.40442946 -.00000047  00000+0  00000+0 0  9998
2 27426   4.8405  75.4925 0003580   0.6498 210.2310  1.00271875 87970
INTELSAT 905 (IS-905)   
1 27438U 02027A   26153.47891706  .00000103  00000+0  00000+0 0  9996
2 27438   6.7171  69.9764 0004259   8.4137 207.7591  1.00271631 51213
GALAXY 3C (G-3C)        
1 27445U 02030A   26153.40746281 -.00000142  00000+0  00000+0 0  9992
2 27445   3.6925  78.1753 0002035  26.9142 197.6250  1.00271911 46343
INTELSAT 906 (IS-906)   
1 27513U 02041A   26152.99072515  .00000022  00000+0  00000+0 0  9991
2 27513   5.7654  73.1065 0004603 354.3672 243.8109  1.00273106 86878
GALAXY 13 (HORIZONS-1)  
1 27954U 03044A   26153.53908687  .00000144  00000+0  00000+0 0  9998
2 27954   1.3823  84.0361 0002051 338.8021 232.2303  1.00270627 46427
INTELSAT 10-02          
1 28358U 04022A   26152.92693498  .00000001  00000+0  00000+0 0  9999
2 28358   0.0142  16.2410 0000248  71.9045 134.9561  1.00271455 80405
DIRECTV 8               
1 28659U 05019A   26153.54524023  .00000013  00000+0  00000+0 0  9999
2 28659   0.0171 313.5935 0003502 127.4269 247.2335  1.00271763 76928
GALAXY 28 (G-28)        
1 28702U 05022A   26153.42083845 -.00000189  00000+0  00000+0 0  9996
2 28702   3.2611  79.1085 0003314 354.7015 301.4910  1.00275370 51829
GALAXY 16 (G-16)        
1 29236U 06023A   26153.26405936 -.00000115  00000+0  00000+0 0  9991
2 29236   0.0130  81.8204 0003046 355.3179 169.6566  1.00271829 72825
DIRECTV 9S              
1 29494U 06043A   26153.54879359 -.00000102  00000+0  00000+0 0  9990
2 29494   2.3833  81.0769 0005232   1.7684 264.5547  1.00272148 51237
GALAXY 17 (G-17)        
1 31307U 07016B   26153.55200028 -.00000195  00000+0  00000+0 0  9991
2 31307   2.9357  80.0834 0005001  10.4870 274.1790  1.00271308 69659
INTELSAT 11 (IS-11)     
1 32253U 07044B   26153.49697564 -.00000080  00000+0  00000+0 0  9994
2 32253   3.5276  78.8458 0001494  70.9913 110.3700  0.99052852 68306
HORIZONS-2              
1 32388U 07063B   26153.55399361 -.00000242  00000+0  00000+0 0  9995
2 32388   2.5646  80.8059 0004157 353.2436 302.6249  1.00270261 67662
DIRECTV 11              
1 32729U 08013A   26153.47786755 -.00000113  00000+0  00000+0 0  9995
2 32729   0.0175 148.1047 0000416 251.1493 284.5501  1.00271993 45443
GALAXY 18 (G-18)        
1 32951U 08024A   26153.54446023  .00000037  00000+0  00000+0 0  9997
2 32951   0.0167 358.4879 0003338  81.8032 243.7270  1.00271361 45701
INTELSAT 25 (IS-25)     
1 33153U 08034A   26153.55499359 -.00000103  00000+0  00000+0 0  9999
2 33153   2.6714  80.5208 0002439  33.5323 163.8638  0.99032123 65541
GALAXY 19 (G-19)        
1 33376U 08045A   26153.54957359  .00000000  00000+0  00000+0 0  9991
2 33376   0.0160 354.4384 0003531  93.2132 264.2219  1.00269067 64753
FM-5                    
1 35493U 09034A   26153.55174027 -.00000188  00000+0  00000+0 0  9994
2 35493   0.0146 295.2854 0000397 359.7787  68.4253  1.00269801 46495
INTELSAT 14 (IS-14)     
1 36097U 09064A   26153.39598900 -.00000261  00000+0  00000+0 0  9992
2 36097   0.0153 296.3629 0002967 148.8944 263.1769  1.00272214 60453
INTELSAT 15 (IS-15)     
1 36106U 09067A   26153.58571376 -.00000173  00000+0  00000+0 0  9997
2 36106   0.0132 299.6814 0002531 134.7915 112.5902  1.00271227 41089
DIRECTV 12              
1 36131U 09075A   26153.54844692 -.00000091  00000+0  00000+0 0  9993
2 36131   0.0131  89.6837 0000390 320.7099 295.3490  1.00272386 46409
INTELSAT 16 (IS-16)     
1 36397U 10006A   26153.64599440 -.00000232  00000+0  00000+0 0  9999
2 36397   0.0111 356.9435 0003166 107.9409 302.5887  1.00270801 59505
XM-5                    
1 37185U 10053A   26153.50253252 -.00000011  00000+0  00000+0 0  9995
2 37185   0.0654 273.9614 0003222 276.4673 126.2665  1.00271455 57338
INTELSAT 17 (IS-17)     
1 37238U 10065B   26153.58190042  .00000011  00000+0  00000+0 0  9991
2 37238   0.0128 275.1632 0002361 158.8019  92.5655  1.00271468 53106
INTELSAT 28 (IS-28)     
1 37392U 11016A   26153.39804084 -.00000213  00000+0  00000+0 0  9991
2 37392   1.7683  82.8071 0004137 348.2175 291.4786  1.00271013 53136
INTELSAT 18 (IS-18)     
1 37834U 11056A   26152.89148444  .00000065  00000+0  00000+0 0  9995
2 37834   0.0178 337.6301 0002236 104.1397 309.5429  1.00271837 53654
INTELSAT 22 (IS-22)     
1 38098U 12011A   26153.58311375 -.00000046  00000+0  00000+0 0  9992
2 38098   0.0083  38.3168 0002044  35.4646  99.2839  1.00271865  7049
INTELSAT 19 (IS-19)     
1 38356U 12030A   26153.50878253 -.00000044  00000+0  00000+0 0  9993
2 38356   0.0164 334.0091 0003260 104.3306 161.8091  1.00272116 50300
INTELSAT 20 (IS-20)     
1 38740U 12043A   26153.51106104 -.00000012  00000+0  00000+0 0  9999
2 38740   0.0080  90.0267 0001622  86.6567 326.7773  1.00270370 50601
INTELSAT 21 (IS-21)     
1 38749U 12045A   26153.48601426 -.00000273  00000+0  00000+0 0  9992
2 38749   0.0330  71.6959 0002174   9.9915 286.2402  1.00271029 50374
INTELSAT 23 (IS-23)     
1 38867U 12057A   26153.30552720 -.00000272  00000+0  00000+0 0  9998
2 38867   0.0173 296.7077 0000409 248.8882 122.1903  1.00271104 49801
FM-6                    
1 39360U 13058A   26153.30530919 -.00000004  00000+0  00000+0 0  9998
2 39360   0.0137  80.7147 0004583  85.1893  78.4802  1.00276902 45921
INTELSAT 30 (IS-30)     
1 40271U 14062A   26152.22614446 -.00000139  00000+0  00000+0 0  9994
2 40271   0.0253  39.0767 0000866 352.8767 204.1353  1.00275478  6633
DIRECTV 14              
1 40333U 14078B   26153.12609201 -.00000113  00000+0  00000+0 0  9995
2 40333   0.0116 345.3506 0000341 159.3216  52.0908  1.00272243 41891
DIRECTV 15              
1 40663U 15026A   26153.47717421 -.00000090  00000+0  00000+0 0  9991
2 40663   0.0169 340.9015 0000180 135.2250 203.7292  1.00271328 40313
SKY MEXICO-1            
1 40664U 15026B   26153.55321361 -.00000222  00000+0  00000+0 0  9992
2 40664   0.0176 342.0056 0002391 107.3072 282.0698  1.00271593 40301
INTELSAT 34 (IS-34)     
1 40874U 15039A   26153.48653426 -.00000273  00000+0  00000+0 0  9997
2 40874   0.0107 321.3957 0000393 138.2129 271.0238  1.00280991 39481
INTELSAT 31 (IS-31)     
1 41581U 16035A   26153.55000693 -.00000138  00000+0  00000+0 0  9990
2 41581   0.0174 265.6244 0000764 349.3693  98.9895  1.00270259 36537
INTELSAT 36 (IS-36)     
1 41747U 16053A   26151.65712634 -.00000012  00000+0  00000+0 0  9999
2 41747   0.0109 350.6425 0001633 354.2552 209.3320  1.00271386 35790
INTELSAT 32E (IS-32E)   
1 41945U 17007B   26151.27880508 -.00000256  00000+0  00000+0 0  9993
2 41945   0.0182 339.2459 0000349  15.7546 310.9746  1.00271825 34053
INTELSAT 35E (IS-35E)   
1 42818U 17041A   26153.49069428 -.00000226  00000+0  00000+0 0  9994
2 42818   0.0177 357.8719 0002352  73.9899 321.2579  1.00270200 32665
INTELSAT 37E (IS-37E)   
1 42950U 17059A   26153.42265846 -.00000128  00000+0  00000+0 0  9996
2 42950   0.0198  51.5198 0002698  31.0779 302.4650  1.00273187 31914
AZERSPACE 2 (IS-38)     
1 43632U 18074A   26153.57774039  .00000149  00000+0  00000+0 0  9999
2 43632   0.0023  26.3608 0001600  50.4638  67.3179  1.00271345 28302
HORIZONS-3E             
1 43633U 18074B   26153.52128007 -.00000018  00000+0  00000+0 0  9999
2 43633   0.0184 145.1794 0000640 127.8479 334.6238  1.00270682 28198
AT&T T-16               
1 44333U 19034A   26153.54888025 -.00000103  00000+0  00000+0 0  9994
2 44333   0.0245  58.8099 0000404 175.8355 113.1125  1.00269253 25482
INTELSAT 39 (IS-39)     
1 44476U 19049B   26153.66053718  .00000046  00000+0  00000+0 0  9999
2 44476   0.0165 318.0620 0000628  11.8845 220.9374  1.00271544 24986
GALAXY 30 (G-30)        
1 46114U 20056C   26153.54402690  .00000049  00000+0  00000+0 0  9997
2 46114   0.0163   3.2322 0002499  65.6846 252.9334  1.00271770 21140
GALAXY 33 (G-33)        
1 54026U 22128A   26153.54246689  .00000091  00000+0  00000+0 0  9991
2 54026   0.0114   0.5276 0002074  73.0976 239.6891  1.00272635 13592
GALAXY 34 (G-34)        
1 54027U 22128B   26153.32931344  .00000000  00000+0  00000+0 0  9997
2 54027   0.0257 333.0725 0001863 106.4634 160.8213  1.00271597 13769
GALAXY 31 (G-31)        
1 54243U 22153A   26153.54489356  .00000000  00000+0  00000+0 0  9990
2 54243   0.0146   8.6357 0001551  64.1460 253.3935  1.00270375  6981
GALAXY 32 (G-32)        
1 54244U 22153B   26153.55078693 -.00000162  00000+0  00000+0 0  9990
2 54244   0.0110 335.4954 0002454  64.2100 318.6008  1.00271074 12993
GALAXY 35 (G-35)        
1 54741U 22170A   26153.55035360  .00000000  00000+0  00000+0 0  9995
2 54741   0.0156 352.6057 0002389  85.5760 277.8651  1.00269452 12745
GALAXY 36 (G-36)        
1 54742U 22170B   26153.55122027 -.00000173  00000+0  00000+0 0  9995
2 54742   0.0193 246.9050 0002973 192.5586 281.0029  1.00271635 12628
GALAXY 37 (G-37)        
1 57493U 23112A   26153.51503000  .00000060  00000+0  00000+0 0  9992
2 57493   0.0129 296.0741 0002318 137.4385 235.8887  1.00272812 10393
